NORAD_CAT_ID,OBJECT_NAME,OBJECT_TYPE,EPOCH,MEAN_MOTION,ECCENTRICITY,INCLINATION,RA_OF_ASC_NODE,ARG_OF_PERICENTER,MEAN_ANOMALY,BSTAR,MEAN_MOTION_DOT,MEAN_MOTION_DDOT,TLE_LINE0,TLE_LINE1,TLE_LINE2,SEMIMAJOR_AXIS,PERIOD,APOGEE,PERIGEE,DECAYED
50177.0,STARLINK-3282,PAYLOAD,2022-06-28 04:42:53,15.08834338,0.000272,53.2166,191.7295,36.1282,323.9894,9.1649e-05,1.17e-05,0.0,0 STARLINK-3282,1 50177U 21125X   22179.19645699  .00001170  00000-0  91649-4 0  9993,2 50177  53.2166 191.7295 0002720  36.1282 323.9894 15.08834338 32233,6917.898,95.438,541.644,537.881,0.0
50177.0,STARLINK-3282,PAYLOAD,2022-06-28 09:29:03,15.08836146,0.000274,53.2168,190.8375,36.5768,323.5411,8.7655e-05,1.107e-05,0.0,0 STARLINK-3282,1 50177U 21125X   22179.39517682  .00001107  00000-0  87655-4 0  9997,2 50177  53.2168 190.8375 0002740  36.5768 323.5411 15.08836146 32756,6917.892,95.438,541.653,537.862,0.0
50177.0,STARLINK-3282,PAYLOAD,2022-06-29 10:55:13,15.08840195,0.0002826,53.2168,186.0798,38.7032,321.4163,7.471600000000001e-05,9.01e-06,0.0,0 STARLINK-3282,1 50177U 21125X   22180.45501604  .00000901  00000-0  74716-4 0  9998,2 50177  53.2168 186.0798 0002826  38.7032 321.4163 15.08840195 32913,6917.88,95.438,541.7,537.79,0.0
50177.0,STARLINK-3282,PAYLOAD,2022-06-30 12:21:23,15.08843338,0.0002908,53.217,181.3219,40.133,319.9876,6.3485e-05,7.22e-06,0.0,0 STARLINK-3282,1 50177U 21125X   22181.51485263  .00000722  00000-0  63485-4 0  9990,2 50177  53.2170 181.3219 0002908  40.1330 319.9876 15.08843338 33074,6917.87,95.437,541.747,537.7230000000002,0.0
50177.0,STARLINK-3282,PAYLOAD,2022-06-30 17:07:32,15.0884388,0.000292,53.2171,180.4298,40.5347,319.5862,6.6958e-05,7.77e-06,0.0,0 STARLINK-3282,1 50177U 21125X   22181.71357160  .00000777  00000-0  66958-4 0  9994,2 50177  53.2171 180.4298 0002920  40.5347 319.5862 15.08843880 33105,6917.869000000002,95.437,541.754,537.714,0.0
50177.0,STARLINK-3282,PAYLOAD,2022-07-01 09:01:24,15.08835786,0.0002825,53.217,177.4562,40.571,319.5492,-2.9139e-05,-7.52e-06,0.0,0 STARLINK-3282,1 50177U 21125X   22182.37597774 -.00000752  00000-0 -29139-4 0  9999,2 50177  53.2170 177.4562 0002825  40.5710 319.5492 15.08835786 33208,6917.893,95.438,541.7130000000002,537.804,0.0
50177.0,STARLINK-3282,PAYLOAD,2022-07-01 16:58:20,15.08831164,0.0002849,53.2169,175.9694,40.3479,319.7724,-6.3087e-05,-1.292e-05,0.0,0 STARLINK-3282,1 50177U 21125X   22182.70718234 -.00001292  00000-0 -63087-4 0  9992,2 50177  53.2169 175.9694 0002849  40.3479 319.7724 15.08831164 33252,6917.906999999997,95.438,541.743,537.8009999999998,0.0
50177.0,STARLINK-3282,PAYLOAD,2022-07-02 10:27:35,15.08833258,0.0002981,53.217,172.6987,42.9591,317.1633,-4.5408e-05,-1.011e-05,0.0,0 STARLINK-3282,1 50177U 21125X   22183.43582422 -.00001011  00000-0 -45408-4 0  9997,2 50177  53.2170 172.6987 0002981  42.9591 317.1633 15.08833258 33362,6917.901,95.438,541.828,537.7040000000002,0.0
50177.0,STARLINK-3282,PAYLOAD,2022-07-03 10:18:22,15.0884171,0.0003046,53.217,168.2383,42.9982,317.1248,-7.6388e-05,-1.504e-05,0.0,0 STARLINK-3282,1 50177U 21125X   22184.42942394 -.00001504  00000-0 -76388-4 0  9993,2 50177  53.2170 168.2383 0003046  42.9982 317.1248 15.08841710 33511,6917.875,95.437,541.847,537.633,0.0
50177.0,STARLINK-3282,PAYLOAD,2022-07-04 10:09:09,15.08836718,0.0003084,53.217,163.7778,46.2525,313.8722,0.00013762,1.902e-05,0.0,0 STARLINK-3282,1 50177U 21125X   22185.42302938  .00001902  00000-0  13762-3 0  9994,2 50177  53.2170 163.7778 0003084  46.2525 313.8722 15.08836718 33669,6917.89,95.438,541.889,537.622,0.0
50177.0,STARLINK-3282,PAYLOAD,2022-07-05 09:59:56,15.08847172,0.0003179,53.2164,159.3175,48.3287,311.7976,0.00020062,2.906e-05,0.0,0 STARLINK-3282,1 50177U 21125X   22186.41662729  .00002906  00000-0  20062-3 0  9997,2 50177  53.2164 159.3175 0003179  48.3287 311.7976 15.08847172 33818,6917.858,95.437,541.923,537.524,0.0
50177.0,STARLINK-3282,PAYLOAD,2022-07-05 14:46:05,15.08848707,0.0003187,53.2165,158.4255,48.6785,311.4481,0.00019995,2.896e-05,0.0,0 STARLINK-3282,1 50177U 21125X   22186.61534578  .00002896  00000-0  19995-3 0  9990,2 50177  53.2165 158.4255 0003187  48.6785 311.4481 15.08848707 33849,6917.854,95.437,541.923,537.514,0.0
50177.0,STARLINK-3282,PAYLOAD,2022-07-06 08:15:20,15.08837492,0.0003183,53.2163,155.1543,49.1021,311.0247,-4.1547e-05,-9.5e-06,0.0,0 STARLINK-3282,1 50177U 21125X   22187.34398880 -.00000950  00000-0 -41547-4 0  9995,2 50177  53.2163 155.1543 0003183  49.1021 311.0247 15.08837492 33953,6917.888000000001,95.438,541.955,537.5509999999998,0.0
50177.0,STARLINK-3282,PAYLOAD,2022-07-06 14:36:53,15.08840538,0.0003186,53.2164,153.9649,49.6203,310.5067,-7.5344e-06,-4.09e-06,0.0,0 STARLINK-3282,1 50177U 21125X   22187.60894712 -.00000409  00000-0 -75344-5 0  9991,2 50177  53.2164 153.9649 0003186  49.6203 310.5067 15.08840538 33990,6917.879,95.438,541.948,537.54,0.0
50177.0,STARLINK-3282,PAYLOAD,2022-07-07 09:41:30,15.088467199999998,0.0003142,53.2173,150.3968,51.5325,308.5948,4.6201e-05,4.47e-06,0.0,0 STARLINK-3282,1 50177U 21125X   22188.40382535  .00000447  00000-0  46201-4 0  9994,2 50177  53.2173 150.3968 0003142  51.5325 308.5948 15.08846720 33628,6917.86,95.437,541.898,537.5509999999998,0.0
50177.0,STARLINK-3282,PAYLOAD,2022-07-07 20:49:12,15.08849769,0.0003076,53.2173,148.3153,52.3944,307.7327,6.593199999999999e-05,7.61e-06,0.0,0 STARLINK-3282,1 50177U 21125X   22188.86750112  .00000761  00000-0  65932-4 0  9995,2 50177  53.2173 148.3153 0003076  52.3944 307.7327 15.08849769 34183,6917.851,95.437,541.8430000000002,537.5880000000002,0.0
50177.0,STARLINK-3282,PAYLOAD,2022-07-08 09:32:17,15.08843713,0.0003229,53.2159,145.9359,53.0106,307.1181,0.0001209,1.636e-05,0.0,0 STARLINK-3282,1 50177U 21125X   22189.39742131  .00001636  00000-0  12090-3 0  9994,2 50177  53.2159 145.9359 0003229  53.0106 307.1181 15.08843713 34260,6917.869000000002,95.437,541.9680000000002,537.5,0.0
50177.0,STARLINK-3282,PAYLOAD,2022-07-08 20:39:59,15.08845975,0.0003264,53.2176,143.8548,54.6511,305.4786,0.00012226,1.658e-05,0.0,0 STARLINK-3282,1 50177U 21125X   22189.86109985  .00001658  00000-0  12226-3 0  9995,2 50177  53.2176 143.8548 0003264  54.6511 305.4786 15.08845975 34334,6917.861999999999,95.437,541.985,537.469,0.0
50177.0,STARLINK-3282,PAYLOAD,2022-07-09 06:12:17,15.08850418,0.000326,53.2161,142.0703,55.6124,304.5176,0.00013533,1.866e-05,0.0,0 STARLINK-3282,1 50177U 21125X   22190.25853485  .00001866  00000-0  13533-3 0  9994,2 50177  53.2161 142.0703 0003260  55.6124 304.5176 15.08850418 34396,6917.849,95.437,541.969,537.4580000000002,0.0
50177.0,STARLINK-3282,PAYLOAD,2022-07-09 14:09:13,15.08842055,0.0003296,53.2175,140.5843,54.8435,305.2866,2.5615e-05,1.19e-06,0.0,0 STARLINK-3282,1 50177U 21125X   22190.58974157  .00000119  00000-0  25615-4 0  9995,2 50177  53.2175 140.5843 0003296  54.8435 305.2866 15.08842055 34442,6917.874,95.437,542.019,537.4590000000002,0.0
50177.0,STARLINK-3282,PAYLOAD,2022-07-10 04:27:42,15.08831705,0.0003233,53.2181,137.9074,58.7253,301.4055,-0.00013025,-2.361e-05,0.0,0 STARLINK-3282,1 50177U 21125X   22191.18591384 -.00002361  00000-0 -13025-3 0  9993,2 50177  53.2181 137.9074 0003233  58.7253 301.4055 15.08831705 34041,6917.906,95.438,542.007,537.534,0.0
50177.0,STARLINK-3282,PAYLOAD,2022-07-10 07:38:29,15.08831768,0.0003213,53.2181,137.3129,57.3538,302.7764,-0.00012565,-2.288e-05,0.0,0 STARLINK-3282,1 50177U 21125X   22191.31839404 -.00002288  00000-0 -12565-3 0  9992,2 50177  53.2181 137.3129 0003213  57.3538 302.7764 15.08831768 34551,6917.906,95.438,541.993,537.548,0.0
50177.0,STARLINK-3282,PAYLOAD,2022-07-10 20:21:34,15.08832684,0.0003137,53.218,134.9345,55.7112,304.4177,-1.4148e-05,-5.14e-06,0.0,0 STARLINK-3282,1 50177U 21125X   22191.84831289 -.00000514  00000-0 -14148-4 0  9993,2 50177  53.2180 134.9345 0003137  55.7112 304.4177 15.08832684 34632,6917.903,95.438,541.938,537.5980000000002,0.0
50177.0,STARLINK-3282,PAYLOAD,2022-07-11 02:43:06,15.0883858,0.0003157,53.218,133.745,56.3112,303.8181,9.1133e-06,-1.44e-06,0.0,0 STARLINK-3282,1 50177U 21125X   22192.11327000 -.00000144  00000-0  91133-5 0  9993,2 50177  53.2180 133.7450 0003157  56.3112 303.8181 15.08838580 34184,6917.885,95.438,541.934,537.566,0.0
50177.0,STARLINK-3282,PAYLOAD,2022-07-11 20:12:20,15.08835603,0.0003105,53.218,130.474,57.106,303.0231,0.00024586,3.626e-05,0.0,0 STARLINK-3282,1 50177U 21125X   22192.84190808  .00003626  00000-0  24586-3 0  9990,2 50177  53.2180 130.4740 0003105  57.1060 303.0231 15.08835603 34781,6917.894,95.438,541.9069999999998,537.611,0.0
50177.0,STARLINK-3282,PAYLOAD,2022-07-12 04:09:16,15.08839405,0.0003102,53.2179,128.9877,56.5224,303.6064,0.00024975,3.689e-05,0.0,0 STARLINK-3282,1 50177U 21125X   22193.17310917  .00003689  00000-0  24975-3 0  9993,2 50177  53.2179 128.9877 0003102  56.5224 303.6064 15.08839405 34340,6917.882,95.438,541.893,537.601,0.0
50177.0,STARLINK-3282,PAYLOAD,2022-07-12 05:44:40,15.088424599999998,0.0003143999999999,53.2171,128.6902,56.3812,303.7479,0.00030451,4.562e-05,0.0,0 STARLINK-3282,1 50177U 21125X   22193.23935186  .00004562  00000-0  30451-3 0  9998,2 50177  53.2171 128.6902 0003144  56.3812 303.7479 15.08842460 34846,6917.873000000001,95.437,541.913,537.563,0.0
50177.0,STARLINK-3282,PAYLOAD,2022-07-12 20:03:07,15.08856062,0.0003113,53.2172,126.0138,58.5792,301.5504,0.00039551,6.015e-05,0.0,0 STARLINK-3282,1 50177U 21125X   22193.83550550  .00006015  00000-0  39551-3 0  9997,2 50177  53.2172 126.0138 0003113  58.5792 301.5504 15.08856062 34935,6917.831,95.437,541.85,537.543,0.0
50177.0,STARLINK-3282,PAYLOAD,2022-07-13 02:24:39,15.08862088,0.0003177,53.2187,124.8256,55.6513,304.4779,0.0004588,7.026e-05,0.0,0 STARLINK-3282,1 50177U 21125X   22194.10046202  .00007026  00000-0  45880-3 0  9997,2 50177  53.2187 124.8256 0003177  55.6513 304.4779 15.08862088 34488,6917.813,95.436,541.876,537.48,0.0
